NORAD_CAT_ID,OBJECT_NAME,OBJECT_TYPE,EPOCH,MEAN_MOTION,ECCENTRICITY,INCLINATION,RA_OF_ASC_NODE,ARG_OF_PERICENTER,MEAN_ANOMALY,BSTAR,MEAN_MOTION_DOT,MEAN_MOTION_DDOT,TLE_LINE0,TLE_LINE1,TLE_LINE2,SEMIMAJOR_AXIS,PERIOD,APOGEE,PERIGEE,DECAYED
49442.0,STARLINK-3098,PAYLOAD,2024-01-27 09:23:31,15.08840122,0.0002113,53.2185,76.1016,60.5516,299.5686,-1.2611e-05,-4.89e-06,0.0,0 STARLINK-3098,1 49442U 21104AL  24027.39133850 -.00000489  00000-0 -12611-4 0  9996,2 49442  53.2185  76.1016 0002113  60.5516 299.5686 15.08840122123406,6917.88,95.438,541.207,538.283,0.0
49442.0,STARLINK-3098,PAYLOAD,2024-01-28 09:14:18,15.0884529,0.0001783,53.218,71.6448,75.5129,284.6061,-2.9722e-06,-3.35e-06,0.0,0 STARLINK-3098,1 49442U 21104AL  24028.38493430 -.00000335  00000-0 -29722-5 0  9991,2 49442  53.2180  71.6448 0001783  75.5129 284.6061 15.08845290122477,6917.864,95.437,540.963,538.496,0.0
49442.0,STARLINK-3098,PAYLOAD,2024-01-29 09:05:05,15.08843793,0.0001762,53.2184,67.1837,99.2257,260.8934,9.6962e-05,1.256e-05,0.0,0 STARLINK-3098,1 49442U 21104AL  24029.37853025  .00001256  00000-0  96962-4 0  9991,2 49442  53.2184  67.1837 0001762  99.2257 260.8934 15.08843793123703,6917.869,95.437,540.953,538.515,0.0
49442.0,STARLINK-3098,PAYLOAD,2024-01-30 12:06:39,15.08837417,0.000173,53.2181,62.1259,95.9253,264.1937,-1.5706e-05,-5.38e-06,0.0,0 STARLINK-3098,1 49442U 21104AL  24030.50461852 -.00000538  00000-0 -15706-4 0  9992,2 49442  53.2181  62.1259 0001730  95.9253 264.1937 15.08837417123871,6917.888,95.438,540.95,538.556,0.0
49442.0,STARLINK-3098,PAYLOAD,2024-01-31 08:46:39,15.08842327,0.0001736,53.2181,58.2599,91.9625,268.1566,5.0128e-05,5.1e-06,0.0,0 STARLINK-3098,1 49442U 21104AL  24031.36573370  .00000510  00000-0  50128-4 0  9991,2 49442  53.2181  58.2599 0001736  91.9625 268.1566 15.08842327124003,6917.873,95.437,540.939,538.537,0.0
49442.0,STARLINK-3098,PAYLOAD,2024-02-01 08:37:27,15.08831992,0.0001746,53.2181,53.799,102.3486,257.7702,-1.4663e-05,-5.21e-06,0.0,0 STARLINK-3098,1 49442U 21104AL  24032.35934465 -.00000521  00000-0 -14663-4 0  9995,2 49442  53.2181  53.7990 0001746 102.3486 257.7702 15.08831992124159,6917.905,95.438,540.978,538.562,0.0
49442.0,STARLINK-3098,PAYLOAD,2024-02-02 10:03:36,15.08854894,0.0001618,53.2178,49.0402,91.284,268.8338,-8.1797e-05,-1.59e-05,0.0,0 STARLINK-3098,1 49442U 21104AL  24033.41917513 -.00001590  00000-0 -81797-4 0  9997,2 49442  53.2178  49.0402 0001618  91.2840 268.8338 15.08854894124311,6917.835,95.437,540.819,538.581,0.0
49442.0,STARLINK-3098,PAYLOAD,2024-02-03 09:54:24,15.08839815,0.0001634,53.2185,44.5793,81.6568,278.4609,6.8979e-05,8.1e-06,0.0,0 STARLINK-3098,1 49442U 21104AL  24034.41278192  .00000810  00000-0  68979-4 0  9990,2 49442  53.2185  44.5793 0001634  81.6568 278.4609 15.08839815123380,6917.881,95.438,540.876,538.616,0.0
49442.0,STARLINK-3098,PAYLOAD,2024-02-04 09:45:11,15.08847124,0.0001781,53.2191,40.1173,80.1355,279.9838,6.3503e-05,7.23e-06,0.0,0 STARLINK-3098,1 49442U 21104AL  24035.40637742  .00000723  00000-0  63503-4 0  9991,2 49442  53.2191  40.1173 0001781  80.1355 279.9838 15.08847124123531,6917.859,95.437,540.956,538.492,0.0
49442.0,STARLINK-3098,PAYLOAD,2024-02-05 00:03:39,15.08842495,0.0001953,53.2196,37.4399,120.3018,239.8167,-2.9826e-05,-7.63e-06,0.0,0 STARLINK-3098,1 49442U 21104AL  24036.00254096 -.00000763  00000-0 -29826-4 0  9991,2 49442  53.2196  37.4399 0001953 120.3018 239.8167 15.08842495124705,6917.873,95.437,541.089,538.387,0.0
49442.0,STARLINK-3098,PAYLOAD,2024-02-05 06:25:11,15.08845135,0.000172,53.2191,36.2544,107.4494,252.6686,3.7351e-05,3.06e-06,0.0,0 STARLINK-3098,1 49442U 21104AL  24036.26749707  .00000306  00000-0  37351-4 0  9990,2 49442  53.2191  36.2544 0001720 107.4494 252.6686 15.08845135123662,6917.865,95.437,540.92,538.54,0.0
49442.0,STARLINK-3098,PAYLOAD,2024-02-06 04:40:36,15.0881722,0.0002264,53.2185,32.0939,128.3883,231.7312,0.00027691,4.119e-05,0.0,0 STARLINK-3098,1 49442U 21104AL  24037.19486289  .00004119  00000-0  27691-3 0  9997,2 49442  53.2185  32.0939 0002264 128.3883 231.7312 15.08817220124888,6917.95,95.439,541.381,538.249,0.0
49442.0,STARLINK-3098,PAYLOAD,2024-02-06 06:15:59,15.08843064,0.0001664,53.2181,31.7972,106.9086,253.2089,-2.942e-05,-7.56e-06,0.0,0 STARLINK-3098,1 49442U 21104AL  24037.26110087 -.00000756  00000-0 -29420-4 0  9993,2 49442  53.2181  31.7972 0001664 106.9086 253.2089 15.08843064124893,6917.871,95.437,540.887,538.585,0.0
49442.0,STARLINK-3098,PAYLOAD,2024-02-07 02:56:00,15.0883396,0.0001805,53.2182,27.9319,105.3184,254.8008,-1.0188e-05,-4.5e-06,0.0,0 STARLINK-3098,1 49442U 21104AL  24038.12222796 -.00000450  00000-0 -10188-4 0  9992,2 49442  53.2182  27.9319 0001805 105.3184 254.8008 15.08833960125023,6917.899,95.438,541.013,538.515,0.0
49442.0,STARLINK-3098,PAYLOAD,2024-02-07 09:17:32,15.08837279,0.000182,53.2187,26.7379,113.8317,246.2866,2.0171e-05,3.3e-07,0.0,0 STARLINK-3098,1 49442U 21104AL  24038.38718520  .00000033  00000-0  20171-4 0  9993,2 49442  53.2187  26.7379 0001820 113.8317 246.2866 15.08837279123987,6917.889,95.438,541.013,538.495,0.0
49442.0,STARLINK-3098,PAYLOAD,2024-02-07 15:39:05,15.08841534,0.0001604,53.2188,25.5486,94.3103,265.8072,2.1263e-06,-2.54e-06,0.0,0 STARLINK-3098,1 49442U 21104AL  24038.65214365 -.00000254  00000-0  21263-5 0  9991,2 49442  53.2188  25.5486 0001604  94.3103 265.8072 15.08841534125101,6917.876,95.437,540.85,538.631,0.0
49442.0,STARLINK-3098,PAYLOAD,2024-02-08 04:22:10,15.08835125,0.0001582,53.219,23.1703,96.543,263.5742,-8.065e-07,-3.01e-06,0.0,0 STARLINK-3098,1 49442U 21104AL  24039.18207064 -.00000301  00000-0 -80650-6 0  9998,2 49442  53.2190  23.1703 0001582  96.5430 263.5742 15.08835125125188,6917.895,95.438,540.855,538.666,0.0
49442.0,STARLINK-3098,PAYLOAD,2024-02-08 05:57:33,15.08836632,0.0001521,53.218,22.8773,94.5096,265.607,5.7252e-05,6.23e-06,0.0,0 STARLINK-3098,1 49442U 21104AL  24039.24830866  .00000623  00000-0  57252-4 0  9992,2 49442  53.2180  22.8773 0001521  94.5096 265.6070 15.08836632124112,6917.891,95.438,540.808,538.703,0.0
49442.0,STARLINK-3098,PAYLOAD,2024-02-08 21:51:25,15.08840324,0.0001279,53.2175,19.9037,106.552,253.5613,1.9779e-05,2.7e-07,0.0,0 STARLINK-3098,1 49442U 21104AL  24039.91070971  .00000027  00000-0  19779-4 0  9999,2 49442  53.2175  19.9037 0001279 106.5520 253.5613 15.08840324124215,6917.879,95.438,540.629,538.86,0.0
49442.0,STARLINK-3098,PAYLOAD,2024-02-09 05:48:20,15.08845721,0.0001298,53.218,18.4168,98.5961,261.5178,7.6176e-05,9.25e-06,0.0,0 STARLINK-3098,1 49442U 21104AL  24040.24190532  .00000925  00000-0  76176-4 0  9994,2 49442  53.2180  18.4168 0001298  98.5961 261.5178 15.08845721125346,6917.863,95.437,540.626,538.83,0.0
49442.0,STARLINK-3098,PAYLOAD,2024-02-10 04:03:45,15.08837465,0.0001751,53.2193,14.2544,68.8395,291.2784,-4.9271e-06,-3.66e-06,0.0,0 STARLINK-3098,1 49442U 21104AL  24041.16927788 -.00000366  00000-0 -49271-5 0  9995,2 49442  53.2193  14.2544 0001751  68.8395 291.2784 15.08837465125481,6917.888,95.438,540.964,538.542,0.0
49442.0,STARLINK-3098,PAYLOAD,2024-02-10 07:14:31,15.08836649,0.0001728,53.2197,13.6588,75.218,284.9003,5.1629e-05,5.34e-06,0.0,0 STARLINK-3098,1 49442U 21104AL  24041.30175661  .00000534  00000-0  51629-4 0  9990,2 49442  53.2197  13.6588 0001728  75.2180 284.9003 15.08836649124423,6917.891,95.438,540.951,538.56,0.0
49442.0,STARLINK-3098,PAYLOAD,2024-02-10 21:33:00,15.08835703,0.0001782,53.2195,10.9814,93.0486,267.071,4.2931e-05,3.95e-06,0.0,0 STARLINK-3098,1 49442U 21104AL  24041.89791769  .00000395  00000-0  42931-4 0  9998,2 49442  53.2195  10.9814 0001782  93.0486 267.0710 15.08835703124517,6917.894,95.438,540.991,538.526,0.0
49442.0,STARLINK-3098,PAYLOAD,2024-02-11 05:29:55,15.08843305,0.0001688,53.2189,9.4966,73.2422,286.8755,8.3873e-05,1.047e-05,0.0,0 STARLINK-3098,1 49442U 21104AL  24042.22911234  .00001047  00000-0  83873-4 0  9992,2 49442  53.2189   9.4966 0001688  73.2422 286.8755 15.08843305125646,6917.87,95.437,540.903,538.568,0.0
49442.0,STARLINK-3098,PAYLOAD,2024-02-12 06:56:04,15.08855374,0.0001889,53.2194,4.728,73.2561,286.8638,0.00016003,2.261e-05,0.0,0 STARLINK-3098,1 49442U 21104AL  24043.28893874  .00002261  00000-0  16003-3 0  9997,2 49442  53.2194   4.7280 0001889  73.2561 286.8638 15.08855374125803,6917.833,95.437,541.005,538.392,0.0
49442.0,STARLINK-3098,PAYLOAD,2024-02-13 03:36:06,15.08841805,0.0001441,53.2191,0.8694,88.763,271.3527,-4.5325e-05,-1.009e-05,0.0,0 STARLINK-3098,1 49442U 21104AL  24044.15007193 -.00001009  00000-0 -45325-4 0  9996,2 49442  53.2191   0.8694 0001441  88.7630 271.3527 15.08841805125932,6917.875,95.437,540.737,538.743,0.0
49442.0,STARLINK-3098,PAYLOAD,2024-02-13 21:05:20,15.08848983,0.0001727,53.2188,357.5958,121.6951,238.421,-0.00015274,-2.719e-05,0.0,0 STARLINK-3098,1 49442U 21104AL  24044.87871143 -.00002719  00000-0 -15274-3 0  9997,2 49442  53.2188 357.5958 0001727 121.6951 238.4210 15.08848983124962,6917.853,95.437,540.913,538.523,0.0
49442.0,STARLINK-3098,PAYLOAD,2024-02-14 01:51:29,15.08848985,0.0001458,53.2185,356.709,90.1343,269.9816,-5.7276e-05,-1.2e-05,0.0,0 STARLINK-3098,1 49442U 21104AL  24045.07742914 -.00001200  00000-0 -57276-4 0  9996,2 49442  53.2185 356.7090 0001458  90.1343 269.9816 15.08848985124999,6917.853,95.437,540.727,538.709,0.0
49442.0,STARLINK-3098,PAYLOAD,2024-02-14 20:56:08,15.08835431,0.0001117,53.2189,353.1415,98.3525,261.7594,2.5141e-05,1.12e-06,0.0,0 STARLINK-3098,1 49442U 21104AL  24045.87231568  .00000112  00000-0  25141-4 0  9997,2 49442  53.2189 353.1415 0001117  98.3525 261.7594 15.08835431125119,6917.894,95.438,540.532,538.987,0.0
49442.0,STARLINK-3098,PAYLOAD,2024-02-15 03:17:40,15.08839581,0.0001076,53.2194,351.9547,97.2809,262.8306,4.3167e-05,3.99e-06,0.0,0 STARLINK-3098,1 49442U 21104AL  24046.13727255  .00000399  00000-0  43167-4 0  9995,2 49442  53.2194 351.9547 0001076  97.2809 262.8306 15.08839581126231,6917.882,95.438,540.491,539.002,0.0
